CCSDS_OMM_VERS = 2.0
CREATION_DATE  = 
ORIGINATOR     = 

OBJECT_NAME    = DELTA 2 R/B(1)
OBJECT_ID      = 1990-008B
CENTER_NAME    = EARTH
REF_FRAME      = TEME
TIME_SYSTEM    = UTC
MEAN_ELEMENT_THEORY = SGP/SGP4

EPOCH          = 2026-01-23T13:28:42.760128
MEAN_MOTION    = 15.49685621
ECCENTRICITY   = .0100635
INCLINATION    = 35.6054
RA_OF_ASC_NODE = 109.6166
ARG_OF_PERICENTER = 200.9380
MEAN_ANOMALY   = 158.7216

EPHEMERIS_TYPE = 0
CLASSIFICATION_TYPE = U
NORAD_CAT_ID   = 20453
ELEMENT_SET_NO = 999
REV_AT_EPOCH   = 91911
BSTAR          = .10947666E-2
MEAN_MOTION_DOT = .77895E-3
MEAN_MOTION_DDOT = 0

CCSDS_OMM_VERS = 2.0
CREATION_DATE  = 
ORIGINATOR     = 

OBJECT_NAME    = COSMOS 2058
OBJECT_ID      = 1990-010A
CENTER_NAME    = EARTH
REF_FRAME      = TEME
TIME_SYSTEM    = UTC
MEAN_ELEMENT_THEORY = SGP/SGP4

EPOCH          = 2026-01-23T14:52:15.953376
MEAN_MOTION    = 15.10898997
ECCENTRICITY   = .00113288
INCLINATION    = 82.4655
RA_OF_ASC_NODE = 91.8270
ARG_OF_PERICENTER = 123.9679
MEAN_ANOMALY   = 236.2629

EPHEMERIS_TYPE = 0
CLASSIFICATION_TYPE = U
NORAD_CAT_ID   = 20465
ELEMENT_SET_NO = 999
REV_AT_EPOCH   = 93543
BSTAR          = .3188919E-3
MEAN_MOTION_DOT = .5345E-4
MEAN_MOTION_DDOT = 0

CCSDS_OMM_VERS = 2.0
CREATION_DATE  = 
ORIGINATOR     = 

OBJECT_NAME    = SL-14 R/B
OBJECT_ID      = 1990-010B
CENTER_NAME    = EARTH
REF_FRAME      = TEME
TIME_SYSTEM    = UTC
MEAN_ELEMENT_THEORY = SGP/SGP4

EPOCH          = 2026-01-23T11:55:47.699904
MEAN_MOTION    = 14.83521572
ECCENTRICITY   = .002142
INCLINATION    = 82.5045
RA_OF_ASC_NODE = 309.8340
ARG_OF_PERICENTER = 88.7627
MEAN_ANOMALY   = 271.6042

EPHEMERIS_TYPE = 0
CLASSIFICATION_TYPE = U
NORAD_CAT_ID   = 20466
ELEMENT_SET_NO = 999
REV_AT_EPOCH   = 92178
BSTAR          = .10773543E-3
MEAN_MOTION_DOT = .914E-5
MEAN_MOTION_DDOT = 0

CCSDS_OMM_VERS = 2.0
CREATION_DATE  = 
ORIGINATOR     = 

OBJECT_NAME    = SL-14 R/B
OBJECT_ID      = 1990-018B
CENTER_NAME    = EARTH
REF_FRAME      = TEME
TIME_SYSTEM    = UTC
MEAN_ELEMENT_THEORY = SGP/SGP4

EPOCH          = 2026-01-23T22:39:10.519200
MEAN_MOTION    = 14.82097742
ECCENTRICITY   = .00150767
INCLINATION    = 82.5202
RA_OF_ASC_NODE = 264.9219
ARG_OF_PERICENTER = 236.7853
MEAN_ANOMALY   = 123.1916

EPHEMERIS_TYPE = 0
CLASSIFICATION_TYPE = U
NORAD_CAT_ID   = 20511
ELEMENT_SET_NO = 999
REV_AT_EPOCH   = 91595
BSTAR          = .10185218E-3
MEAN_MOTION_DOT = .834E-5
MEAN_MOTION_DDOT = 0

CCSDS_OMM_VERS = 2.0
CREATION_DATE  = 
ORIGINATOR     = 

OBJECT_NAME    = HST
OBJECT_ID      = 1990-037B
CENTER_NAME    = EARTH
REF_FRAME      = TEME
TIME_SYSTEM    = UTC
MEAN_ELEMENT_THEORY = SGP/SGP4

EPOCH          = 2026-01-23T23:23:30.196320
MEAN_MOTION    = 15.28715651
ECCENTRICITY   = .00016931
INCLINATION    = 28.4673
RA_OF_ASC_NODE = 344.8682
ARG_OF_PERICENTER = 341.1542
MEAN_ANOMALY   = 18.8991

EPHEMERIS_TYPE = 0
CLASSIFICATION_TYPE = U
NORAD_CAT_ID   = 20580
ELEMENT_SET_NO = 999
REV_AT_EPOCH   = 76646
BSTAR          = .41608451E-3
MEAN_MOTION_DOT = .12195E-3
MEAN_MOTION_DDOT = 0

CCSDS_OMM_VERS = 2.0
CREATION_DATE  = 
ORIGINATOR     = 

OBJECT_NAME    = SL-16 R/B
OBJECT_ID      = 1990-046B
CENTER_NAME    = EARTH
REF_FRAME      = TEME
TIME_SYSTEM    = UTC
MEAN_ELEMENT_THEORY = SGP/SGP4

EPOCH          = 2026-01-23T22:46:52.106016
MEAN_MOTION    = 14.15007775
ECCENTRICITY   = .00139781
INCLINATION    = 70.9993
RA_OF_ASC_NODE = 31.8749
ARG_OF_PERICENTER = 1.8509
MEAN_ANOMALY   = 358.2663

EPHEMERIS_TYPE = 0
CLASSIFICATION_TYPE = U
NORAD_CAT_ID   = 20625
ELEMENT_SET_NO = 999
REV_AT_EPOCH   = 84206
BSTAR          = -.54088078E-4
MEAN_MOTION_DOT = -.153E-5
MEAN_MOTION_DDOT = 0

CCSDS_OMM_VERS = 2.0
CREATION_DATE  = 
ORIGINATOR     = 

OBJECT_NAME    = COSMOS 2084
OBJECT_ID      = 1990-055A
CENTER_NAME    = EARTH
REF_FRAME      = TEME
TIME_SYSTEM    = UTC
MEAN_ELEMENT_THEORY = SGP/SGP4

EPOCH          = 2026-01-23T16:31:19.607232
MEAN_MOTION    = 15.05335109
ECCENTRICITY   = .0024534
INCLINATION    = 62.7905
RA_OF_ASC_NODE = 129.0273
ARG_OF_PERICENTER = 181.2037
MEAN_ANOMALY   = 178.9008

EPHEMERIS_TYPE = 0
CLASSIFICATION_TYPE = U
NORAD_CAT_ID   = 20663
ELEMENT_SET_NO = 999
REV_AT_EPOCH   = 92954
BSTAR          = .35238571E-3
MEAN_MOTION_DOT = .4903E-4
MEAN_MOTION_DDOT = 0

CCSDS_OMM_VERS = 2.0
CREATION_DATE  = 
ORIGINATOR     = 

OBJECT_NAME    = SL-6 R/B(2)
OBJECT_ID      = 1990-055D
CENTER_NAME    = EARTH
REF_FRAME      = TEME
TIME_SYSTEM    = UTC
MEAN_ELEMENT_THEORY = SGP/SGP4

EPOCH          = 2026-01-23T11:27:18.550656
MEAN_MOTION    = 15.03320819
ECCENTRICITY   = .00182234
INCLINATION    = 62.7836
RA_OF_ASC_NODE = 47.5718
ARG_OF_PERICENTER = 332.6603
MEAN_ANOMALY   = 27.3535

EPHEMERIS_TYPE = 0
CLASSIFICATION_TYPE = U
NORAD_CAT_ID   = 20666
ELEMENT_SET_NO = 999
REV_AT_EPOCH   = 93139
BSTAR          = .26692593E-3
MEAN_MOTION_DOT = .3454E-4
MEAN_MOTION_DDOT = 0

CCSDS_OMM_VERS = 2.0
CREATION_DATE  = 
ORIGINATOR     = 

OBJECT_NAME    = SL-8 R/B
OBJECT_ID      = 1990-078B
CENTER_NAME    = EARTH
REF_FRAME      = TEME
TIME_SYSTEM    = UTC
MEAN_ELEMENT_THEORY = SGP/SGP4

EPOCH          = 2026-01-23T22:23:07.741536
MEAN_MOTION    = 14.87475975
ECCENTRICITY   = .03682567
INCLINATION    = 82.9048
RA_OF_ASC_NODE = 291.5088
ARG_OF_PERICENTER = 163.9413
MEAN_ANOMALY   = 197.3865

EPHEMERIS_TYPE = 0
CLASSIFICATION_TYPE = U
NORAD_CAT_ID   = 20775
ELEMENT_SET_NO = 999
REV_AT_EPOCH   = 80264
BSTAR          = .8279465E-3
MEAN_MOTION_DOT = .27628E-3
MEAN_MOTION_DDOT = 0

CCSDS_OMM_VERS = 2.0
CREATION_DATE  = 
ORIGINATOR     = 

OBJECT_NAME    = SL-8 R/B
OBJECT_ID      = 1991-006B
CENTER_NAME    = EARTH
REF_FRAME      = TEME
TIME_SYSTEM    = UTC
MEAN_ELEMENT_THEORY = SGP/SGP4

EPOCH          = 2026-01-23T17:23:53.648736
MEAN_MOTION    = 13.77492001
ECCENTRICITY   = .00229251
INCLINATION    = 82.9408
RA_OF_ASC_NODE = 203.4804
ARG_OF_PERICENTER = 158.2706
MEAN_ANOMALY   = 213.6968

EPHEMERIS_TYPE = 0
CLASSIFICATION_TYPE = U
NORAD_CAT_ID   = 21088
ELEMENT_SET_NO = 999
REV_AT_EPOCH   = 75788
BSTAR          = .5592454E-5
MEAN_MOTION_DOT = .21E-6
MEAN_MOTION_DDOT = 0

CCSDS_OMM_VERS = 2.0
CREATION_DATE  = 
ORIGINATOR     = 

OBJECT_NAME    = OKEAN-3
OBJECT_ID      = 1991-039A
CENTER_NAME    = EARTH
REF_FRAME      = TEME
TIME_SYSTEM    = UTC
MEAN_ELEMENT_THEORY = SGP/SGP4

EPOCH          = 2026-01-23T23:43:35.732064
MEAN_MOTION    = 15.04426051
ECCENTRICITY   = .00158854
INCLINATION    = 82.5161
RA_OF_ASC_NODE = 20.1362
ARG_OF_PERICENTER = 118.4034
MEAN_ANOMALY   = 241.8796

EPHEMERIS_TYPE = 0
CLASSIFICATION_TYPE = U
NORAD_CAT_ID   = 21397
ELEMENT_SET_NO = 999
REV_AT_EPOCH   = 85831
BSTAR          = .43448272E-3
MEAN_MOTION_DOT = .6114E-4
MEAN_MOTION_DDOT = 0

CCSDS_OMM_VERS = 2.0
CREATION_DATE  = 
ORIGINATOR     = 

OBJECT_NAME    = COSMOS 2151
OBJECT_ID      = 1991-042A
CENTER_NAME    = EARTH
REF_FRAME      = TEME
TIME_SYSTEM    = UTC
MEAN_ELEMENT_THEORY = SGP/SGP4

EPOCH          = 2026-01-23T22:08:11.286240
MEAN_MOTION    = 14.99906870
ECCENTRICITY   = .00120106
INCLINATION    = 82.4980
RA_OF_ASC_NODE = 126.8508
ARG_OF_PERICENTER = 204.5513
MEAN_ANOMALY   = 155.5141

EPHEMERIS_TYPE = 0
CLASSIFICATION_TYPE = U
NORAD_CAT_ID   = 21422
ELEMENT_SET_NO = 999
REV_AT_EPOCH   = 85648
BSTAR          = .27733276E-3
MEAN_MOTION_DOT = .347E-4
MEAN_MOTION_DDOT = 0

