DELTA 2 R/B(1)          
1 20453U 90008B   26023.56160602  .00077895  00000+0  10948-2 0  9999
2 20453  35.6054 109.6166 0100635 200.9380 158.7216 15.49685621919113
COSMOS 2058             
1 20465U 90010A   26023.61962909  .00005345  00000+0  31889-3 0  9990
2 20465  82.4655  91.8270 0011328 123.9679 236.2629 15.10898997935439
SL-14 R/B               
1 20466U 90010B   26023.49707986  .00000914  00000+0  10774-3 0  9996
2 20466  82.5045 309.8340 0021420  88.7627 271.6042 14.83521572921785
SL-14 R/B               
1 20511U 90018B   26023.94387175  .00000834  00000+0  10185-3 0  9996
2 20511  82.5202 264.9219 0015076 236.7853 123.1916 14.82097742915952
HST                     
1 20580U 90037B   26023.97465505  .00012195  00000+0  41608-3 0  9997
2 20580  28.4673 344.8682 0001693 341.1542  18.8991 15.28715651766467
SL-16 R/B               
1 20625U 90046B   26023.94921419 -.00000153  00000+0 -54088-4 0  9995
2 20625  70.9993  31.8749 0013978   1.8509 358.2663 14.15007775842067
COSMOS 2084             
1 20663U 90055A   26023.68842138  .00004903  00000+0  35239-3 0  9999
2 20663  62.7905 129.0273 0024534 181.2037 178.9008 15.05335109929546
SL-6 R/B(2)             
1 20666U 90055D   26023.47729804  .00003454  00000+0  26693-3 0  9997
2 20666  62.7836  47.5718 0018223 332.6603  27.3535 15.03320819931397
SL-8 R/B                
1 20775U 90078B   26023.93272849  .00027628  00000+0  82795-3 0  9990
2 20775  82.9048 291.5088 0368256 163.9413 197.3865 14.87475975802640
SL-8 R/B                
1 21088U 91006B   26023.72492649  .00000021  00000+0  55925-5 0  9994
2 21088  82.9408 203.4804 0022925 158.2706 213.6968 13.77492001757886
OKEAN-3                 
1 21397U 91039A   26023.98860801  .00006114  00000+0  43448-3 0  9994
2 21397  82.5161  20.1362 0015885 118.4034 241.8796 15.04426051858319
COSMOS 2151             
1 21422U 91042A   26023.92235285  .00003470  00000+0  27733-3 0  9994
2 21422  82.4980 126.8508 0012010 204.5513 155.5141 14.99906870856484
